{"fetched_at":"2026-03-29T16:36:15Z","count":15609,"tles":[{"name":"STARLINK-34100","line1":"1 64385U 25127R   26087.65057552  .00023967  00000+0  87791-3 0  9992","line2":"2 64385  43.0022  72.9853 0001033 265.6259  94.4475 15.27569568 45315","category":"Starlink"}]}