{
  "norad_id": 64385,
  "name": "STARLINK-34100",
  "history": [
    {
      "epoch": "2026-03-28T15:36:49.724928Z",
      "apogee_km": 483.7891657410264,
      "perigee_km": 482.3715010156029,
      "latitude_deg": 2.761141871130838e-05,
      "longitude_deg": 12.710169921537048,
      "height_km": 482.9110164643456,
      "semi_major_axis_km": 6861.217333378314,
      "eccentricity": 0.00010331,
      "inclination_deg": 43.0022,
      "raan_deg": 72.9853,
      "arg_perigee_deg": 265.6259,
      "mean_anomaly_deg": 94.4475,
      "mean_motion_rev_day": 15.27569568
    }
  ]
}